NORAD_CAT_ID,OBJECT_NAME,OBJECT_TYPE,EPOCH,MEAN_MOTION,ECCENTRICITY,INCLINATION,RA_OF_ASC_NODE,ARG_OF_PERICENTER,MEAN_ANOMALY,BSTAR,MEAN_MOTION_DOT,MEAN_MOTION_DDOT,TLE_LINE0,TLE_LINE1,TLE_LINE2,SEMIMAJOR_AXIS,PERIOD,APOGEE,PERIGEE,DECAYED
54167.0,STARLINK-5243,PAYLOAD,2022-11-16 04:00:00,15.7104166,0.0005921,53.2173,49.279,269.0043,96.2452,-0.010217,-0.01165709,0.0,0 STARLINK-5243,1 54167U 22141L   22320.16667824 -.01165709  00000-0 -10217-1 0  9995,2 54167  53.2173  49.2790 0005921 269.0043  96.2452 15.71041660  3033,6734.056,91.659,359.908,351.934,0.0
54167.0,STARLINK-5243,PAYLOAD,2022-11-16 14:00:01,15.69978277,0.0001588,53.2174,47.2276,272.9995,289.4225,-0.010847,-0.01198888,0.0,0 STARLINK-5243,1 54167U 22141L   22320.58335648 -.01198888  00000-0 -10847-1 0  9990,2 54167  53.2174  47.2276 0001588 272.9995 289.4225 15.69978277  3095,6737.096,91.721,360.031,357.891,0.0
54167.0,STARLINK-5243,PAYLOAD,2022-11-16 22:00:08,15.6911674,4.91e-05,53.2173,45.5854,88.4504,198.8967,-0.011162,-0.01190493,0.0,0 STARLINK-5243,1 54167U 22141L   22320.91675926 -.01190493  00000-0 -11162-1 0  9998,2 54167  53.2173  45.5854 0000491  88.4504 198.8967 15.69116740  1302,6739.562,91.771,361.758,361.096,0.0
54167.0,STARLINK-5243,PAYLOAD,2022-11-17 12:00:00,15.67329739,0.0001093,53.218,42.7205,62.0718,280.4123,-0.0078476,-0.00784896,0.0,0 STARLINK-5243,1 54167U 22141L   22321.50001157 -.00784896  00000-0 -78476-2 0  9990,2 54167  53.2180  42.7205 0001093  62.0718 280.4123 15.67329739  3242,6744.684,91.876,367.286,365.812,0.0
54167.0,STARLINK-5243,PAYLOAD,2022-11-17 14:00:01,15.67357512,0.0001247,53.2177,42.3122,59.7524,33.1246,-0.011277,-0.01125307,0.0,0 STARLINK-5243,1 54167U 22141L   22321.58334491 -.01125307  00000-0 -11277-1 0  9990,2 54167  53.2177  42.3122 0001247  59.7524  33.1246 15.67357512  1305,6744.604,91.874,367.31,365.628,0.0
54167.0,STARLINK-5243,PAYLOAD,2022-11-17 20:00:01,15.66797668,0.0001113,53.2174,41.0864,49.9129,14.0998,-0.012804,-0.01236235,0.0,0 STARLINK-5243,1 54167U 22141L   22321.83334491 -.01236235  00000-0 -12804-1 0  9998,2 54167  53.2174  41.0864 0001113  49.9129  14.0998 15.66797668  3296,6746.2109999999975,91.907,368.826,367.325,0.0
54167.0,STARLINK-5243,PAYLOAD,2022-11-17 22:00:00,15.66564938,0.0001277,53.2176,40.677,59.8852,114.4039,-0.012702,-0.01217007,0.0,0 STARLINK-5243,1 54167U 22141L   22321.91667824 -.01217007  00000-0 -12702-1 0  9999,2 54167  53.2176  40.6770 0001277  59.8852 114.4039 15.66564938  1306,6746.879,91.921,369.605,367.882,0.0
54167.0,STARLINK-5243,PAYLOAD,2022-11-18 14:00:01,15.648419199999998,0.000109,53.2179,37.416,63.9948,270.0867,-0.013456,-0.01203856,0.0,0 STARLINK-5243,1 54167U 22141L   22322.58334491 -.01203856  00000-0 -13456-1 0  9998,2 54167  53.2179  37.4160 0001090  63.9948 270.0867 15.64841920  1306,6751.83,92.022,374.431,372.959,0.0
54167.0,STARLINK-5243,PAYLOAD,2022-11-18 22:00:00,15.63977455,0.0001211,53.2175,35.7861,52.6394,359.7966,-0.013796,-0.0119352,0.0,0 STARLINK-5243,1 54167U 22141L   22322.91667824 -.01193520  00000-0 -13796-1 0  9997,2 54167  53.2175  35.7861 0001211  52.6394 359.7966 15.63977455  1303,6754.318,92.073,377.001,375.365,0.0
54167.0,STARLINK-5243,PAYLOAD,2022-11-19 06:00:00,15.63131788,0.0001402,53.2174,34.1598,54.2135,75.5359,-0.0144419999999999,-0.01206769,0.0,0 STARLINK-5243,1 54167U 22141L   22323.25001157 -.01206769  00000-0 -14442-1 0  9995,2 54167  53.2174  34.1598 0001402  54.2135  75.5359 15.63131788  3510,6756.754,92.123,379.566,377.672,0.0
54167.0,STARLINK-5243,PAYLOAD,2022-11-19 14:00:01,15.62281149,0.0001371,53.2179,32.5381,67.9404,138.0943,-0.01505,-0.01215146,0.0,0 STARLINK-5243,1 54167U 22141L   22323.58334491 -.01215146  00000-0 -15050-1 0  9996,2 54167  53.2179  32.5381 0001371  67.9404 138.0943 15.62281149  1307,6759.206,92.173,381.99800000000016,380.145,0.0
54167.0,STARLINK-5243,PAYLOAD,2022-11-19 22:00:00,15.6140557,0.0001166,53.2198,30.92,92.5899,188.7529,-0.01535,-0.01199282,0.0,0 STARLINK-5243,1 54167U 22141L   22323.91667824 -.01199282  00000-0 -15350-1 0  9997,2 54167  53.2198  30.9200 0001166  92.5899 188.7529 15.61405570  1301,6761.733,92.225,384.387,382.81,0.0
54167.0,STARLINK-5243,PAYLOAD,2022-11-20 06:00:00,15.605788699999998,0.0001114,53.2199,29.3,93.5869,261.9711,-0.016363,-0.01233986,0.0,0 STARLINK-5243,1 54167U 22141L   22324.25001157 -.01233986  00000-0 -16363-1 0  9991,2 54167  53.2199  29.3000 0001114  93.5869 261.9711 15.60578870  3675,6764.121,92.273,386.739,385.232,0.0
54167.0,STARLINK-5243,PAYLOAD,2022-11-20 14:00:01,15.59668615,0.00012,53.2197,27.6842,73.5429,355.2313,-0.015643,-0.01148117,0.0,0 STARLINK-5243,1 54167U 22141L   22324.58334491 -.01148117  00000-0 -15643-1 0  9998,2 54167  53.2197  27.6842 0001200  73.5429 355.2313 15.59668615  1302,6766.752,92.327,389.429,387.805,0.0
54167.0,STARLINK-5243,PAYLOAD,2022-11-20 22:00:00,15.58816704,0.0001225,53.2194,26.0671,87.8803,53.0668,-0.016488,-0.01169021,0.0,0 STARLINK-5243,1 54167U 22141L   22324.91667824 -.01169021  00000-0 -16488-1 0  9999,2 54167  53.2194  26.0671 0001225  87.8803  53.0668 15.58816704  1302,6769.218000000003,92.378,391.912,390.253,0.0
54167.0,STARLINK-5243,PAYLOAD,2022-11-21 14:00:01,15.57098213,0.0001238,53.2191,22.8443,81.8108,200.3831,-0.017266,-0.01149085,0.0,0 STARLINK-5243,1 54167U 22141L   22325.58334491 -.01149085  00000-0 -17266-1 0  9997,2 54167  53.2191  22.8443 0001238  81.8108 200.3831 15.57098213  3886,6774.196999999999,92.48,396.901,395.224,0.0
54167.0,STARLINK-5243,PAYLOAD,2022-11-21 20:00:01,15.56492699,0.0001315999999999,53.2188,21.6359,88.2498,155.8439,-0.018945,-0.01223871,0.0,0 STARLINK-5243,1 54167U 22141L   22325.83334491 -.01223871  00000-0 -18945-1 0  9996,2 54167  53.2188  21.6359 0001316  88.2498 155.8439 15.56492699  3923,6775.954000000002,92.516,398.711,396.927,0.0
54167.0,STARLINK-5243,PAYLOAD,2022-11-21 22:00:00,15.56243959,0.000111,53.219,21.2332,91.3127,259.9655,-0.018124,-0.01166207,0.0,0 STARLINK-5243,1 54167U 22141L   22325.91667824 -.01166207  00000-0 -18124-1 0  9992,2 54167  53.2190  21.2332 0001110  91.3127 259.9655 15.56243959  1308,6776.676,92.53,399.293,397.789,0.0
54167.0,STARLINK-5243,PAYLOAD,2022-11-22 14:00:01,15.54525775,0.0001412,53.2192,18.0224,72.1047,54.3028,-0.018929,-0.01145039,0.0,0 STARLINK-5243,1 54167U 22141L   22326.58335648 -.01145039  00000-0 -18929-1 0  9995,2 54167  53.2192  18.0224 0001412  72.1047  54.3028 15.54525775  4038,6781.668000000002,92.633,404.491,402.576,0.0
54167.0,STARLINK-5243,PAYLOAD,2022-11-22 22:00:00,15.53670657,0.0001335,53.2193,16.4174,88.8212,103.5165,-0.019837,-0.01161017,0.0,0 STARLINK-5243,1 54167U 22141L   22326.91667824 -.01161017  00000-0 -19837-1 0  9999,2 54167  53.2193  16.4174 0001335  88.8212 103.5165 15.53670657  1302,6784.156999999997,92.684,406.927,405.116,0.0
54167.0,STARLINK-5243,PAYLOAD,2022-11-23 06:00:00,15.52849529,0.0001377,53.2194,14.8167,100.6547,156.6279,-0.021456,-0.01231759,0.0,0 STARLINK-5243,1 54167U 22141L   22327.25001157 -.01231759  00000-0 -21456-1 0  9999,2 54167  53.2194  14.8167 0001377 100.6547 156.6279 15.52849529  4142,6786.5480000000025,92.733,409.348,407.478,0.0
54167.0,STARLINK-5243,PAYLOAD,2022-11-23 14:00:01,15.51958391,0.000119,53.2191,13.219,87.1857,234.0348,-0.020936,-0.01152131,0.0,0 STARLINK-5243,1 54167U 22141L   22327.58334491 -.01152131  00000-0 -20936-1 0  9993,2 54167  53.2191  13.2190 0001190  87.1857 234.0348 15.51958391  1304,6789.146,92.786,411.819,410.203,0.0
54167.0,STARLINK-5243,PAYLOAD,2022-11-23 22:00:00,15.51093678,0.0001136,53.2188,11.6202,92.3101,291.8173,-0.021497,-0.01147175,0.0,0 STARLINK-5243,1 54167U 22141L   22327.91667824 -.01147175  00000-0 -21497-1 0  9994,2 54167  53.2188  11.6202 0001136  92.3101 291.8173 15.51093678  1301,6791.669,92.838,414.305,412.762,0.0
54167.0,STARLINK-5243,PAYLOAD,2022-11-24 06:00:02,15.50090584,0.0001349,53.2183,10.0259,93.1239,352.9255,-0.0055799,-0.0030727,0.0,0 STARLINK-5243,1 54167U 22141L   22328.25002315 -.00307270  00000-0 -55799-2 0  9996,2 54167  53.2183  10.0259 0001349  93.1239 352.9255 15.50090584  4291,6794.598000000001,92.898,417.38,415.547,0.0
54167.0,STARLINK-5243,PAYLOAD,2022-11-24 14:00:01,15.49857434,0.0001441999999999,53.2173,8.434,83.7543,63.2561,0.00094268,0.00053364,0.0,0 STARLINK-5243,1 54167U 22141L   22328.58334491  .00053364  00000-0  94268-3 0  9990,2 54167  53.2173   8.4340 0001442  83.7543  63.2561 15.49857434  4340,6795.28,92.912,418.125,416.165,0.0
54167.0,STARLINK-5243,PAYLOAD,2022-11-24 22:00:00,15.49881499,0.0001369,53.2172,6.839,95.0111,112.9105,0.00015809,8.53e-05,0.0,0 STARLINK-5243,1 54167U 22141L   22328.91667824  .00008530  00000-0  15809-3 0  9995,2 54167  53.2172   6.8390 0001369  95.0111 112.9105 15.49881499  1308,6795.209,92.91,418.005,416.144,0.0
54167.0,STARLINK-5243,PAYLOAD,2022-11-25 06:00:00,15.50026457,0.0001345,53.2172,5.2466,99.677,169.1276,-0.007361,-0.00399615,0.0,0 STARLINK-5243,1 54167U 22141L   22329.25001157 -.00399615  00000-0 -73610-2 0  9996,2 54167  53.2172   5.2466 0001345  99.6770 169.1276 15.50026457  4459,6794.786,92.902,417.565,415.737,0.0
54167.0,STARLINK-5243,PAYLOAD,2022-11-25 14:00:01,15.49831641,0.0001148,53.2171,3.6546,87.2503,242.477,-0.023207,-0.0119821,0.0,0 STARLINK-5243,1 54167U 22141L   22329.58334491 -.01198210  00000-0 -23207-1 0  9997,2 54167  53.2171   3.6546 0001148  87.2503 242.4770 15.49831641  4504,6795.355,92.913,418.0,416.44,0.0
54167.0,STARLINK-5243,PAYLOAD,2022-11-25 22:00:00,15.48941826,0.0001052,53.2172,2.0608,94.5691,295.4956,-0.023156,-0.01161762,0.0,0 STARLINK-5243,1 54167U 22141L   22329.91667824 -.01161762  00000-0 -23156-1 0  9998,2 54167  53.2172   2.0608 0001052  94.5691 295.4956 15.48941826  1305,6797.956999999999,92.967,420.538,419.107,0.0
